[{"OBJECT_NAME":"STARLINK-1790","OBJECT_ID":"2020-073X","EPOCH":"2026-03-10T00:00:02.999808","MEAN_MOTION":15.73247405,"ECCENTRICITY":0.00030153,"INCLINATION":53.0418,"RA_OF_ASC_NODE":197.0184,"ARG_OF_PERICENTER":160.3471,"MEAN_ANOMALY":75.7637,"EPHEMERIS_TYPE":0,"CLASSIFICATION_TYPE":"U","NORAD_CAT_ID":46691,"ELEMENT_SET_NO":999,"REV_AT_EPOCH":596,"BSTAR":0.00070221254,"MEAN_MOTION_DOT":0.00099338,"MEAN_MOTION_DDOT":0},{"OBJECT_NAME":"STARLINK-11641 [DTC]","OBJECT_ID":"2025-053D","EPOCH":"2026-03-09T19:40:05.472192","MEAN_MOTION":15.71271424,"ECCENTRICITY":0.00027395,"INCLINATION":42.9999,"RA_OF_ASC_NODE":111.1109,"ARG_OF_PERICENTER":319.8748,"MEAN_ANOMALY":40.1917,"EPHEMERIS_TYPE":0,"CLASSIFICATION_TYPE":"U","NORAD_CAT_ID":63268,"ELEMENT_SET_NO":999,"REV_AT_EPOCH":5769,"BSTAR":0.0027797877,"MEAN_MOTION_DOT":0.00379851,"MEAN_MOTION_DDOT":0}]
